{"type": "FeatureCollection", "name": "zfat_drone_route", "crs": {"type": "name", "properties": {"name": "urn:ogc:def:crs:EPSG::3857"}}, "features": [{"type": "Feature", "properties": {"id": "route_a", "HZD500": 90.0, "PK": 1}, "geometry": {"type": "Point", "coordinates": [3951162.8742673723, 3891083.805536676, 1000.0]}}, {"type": "Feature", "properties": {"id": "route_a", "HZD500": 90.0, "PK": 2}, "geometry": {"type": "Point", "coordinates": [3951180.361374259, 3891101.6717364043, 1000.0]}}, {"type": "Feature", "properties": {"id": "route_a", "HZD500": 90.0, "PK": 3}, "geometry": {"type": "Point", "coordinates": [3951197.848481146, 3891119.5379361324, 1000.0]}}, {"type": "Feature", "properties": {"id": "route_a", "HZD500": 90.0, "PK": 4}, "geometry": {"type": "Point", "coordinates": [3951215.335588033, 3891137.4041358605, 1000.0]}}, {"type": "Feature", "properties": {"id": "route_a", "HZD500": 90.0, "PK": 5}, "geometry": {"type": "Point", "coordinates": [3951232.82269492, 3891155.270335589, 1000.0]}}, {"type": "Feature", "properties": {"id": "route_a", "HZD500": 90.0, "PK": 6}, "geometry": {"type": "Point", "coordinates": [3951250.3098018067, 3891173.136535317, 1000.0]}}, {"type": "Feature", "properties": {"id": "route_a", "HZD500": 90.0, "PK": 7}, "geometry": {"type": "Point", "coordinates": [3951267.7969086934, 3891191.0027350453, 1000.0]}}, {"type": "Feature", "properties": {"id": "route_a", "HZD500": 90.0, "PK": 8}, "geometry": {"type": "Point", "coordinates": [3951285.2840155805, 3891208.8689347734, 1000.0]}}, {"type": "Feature", "properties": {"id": "route_a", "HZD500": 90.0, "PK": 9}, "geometry": {"type": "Point", "coordinates": [3951302.7711224672, 3891226.7351345015, 1000.0]}}, {"type": "Feature", "properties": {"id": "route_a", "HZD500": 90.0, "PK": 10}, "geometry": {"type": "Point", "coordinates": [3951320.258229354, 3891244.6013342296, 1000.0]}}, {"type": "Feature", "properties": {"id": "route_a", "HZD500": 90.0, "PK": 11}, "geometry": {"type": "Point", "coordinates": [3951337.745336241, 3891262.467533958, 1000.0]}}, {"type": "Feature", "properties": {"id": "route_a", "HZD500": 90.0, "PK": 12}, "geometry": {"type": "Point", "coordinates": [3951355.232443128, 3891280.3337336862, 1000.0]}}, {"type": "Feature", "properties": {"id": "route_a", "HZD500": 90.0, "PK": 13}, "geometry": {"type": "Point", "coordinates": [3951372.719550015, 3891298.1999334143, 1000.0]}}, {"type": "Feature", "properties": {"id": "route_a", "HZD500": 90.0, "PK": 14}, "geometry": {"type": "Point", "coordinates": [3951390.2066569016, 3891316.0661331424, 1000.0]}}, {"type": "Feature", "properties": {"id": "route_a", "HZD500": 90.0, "PK": 15}, "geometry": {"type": "Point", "coordinates": [3951407.6937637883, 3891333.9323328706, 1000.0]}}, {"type": "Feature", "properties": {"id": "route_a", "HZD500": 90.0, "PK": 16}, "geometry": {"type": "Point", "coordinates": [3951425.1808706755, 3891351.7985325987, 1000.0]}}, {"type": "Feature", "properties": {"id": "route_a", "HZD500": 90.0, "PK": 17}, "geometry": {"type": "Point", "coordinates": [3951442.667977562, 3891369.664732327, 1000.0]}}, {"type": "Feature", "properties": {"id": "route_a", "HZD500": 90.0, "PK": 18}, "geometry": {"type": "Point", "coordinates": [3951460.1550844493, 3891387.5309320553, 1000.0]}}, {"type": "Feature", "properties": {"id": "route_a", "HZD500": 90.0, "PK": 19}, "geometry": {"type": "Point", "coordinates": [3951477.642191336, 3891405.3971317834, 1000.0]}}, {"type": "Feature", "properties": {"id": "route_a", "HZD500": 90.0, "PK": 20}, "geometry": {"type": "Point", "coordinates": [3951495.1292982227, 3891423.2633315115, 1000.0]}}, {"type": "Feature", "properties": {"id": "route_a", "HZD500": 90.0, "PK": 21}, "geometry": {"type": "Point", "coordinates": [3951512.61640511, 3891441.1295312396, 1000.0]}}, {"type": "Feature", "properties": {"id": "route_a", "HZD500": 90.0, "PK": 22}, "geometry": {"type": "Point", "coordinates": [3951530.1035119966, 3891458.9957309677, 1000.0]}}, {"type": "Feature", "properties": {"id": "route_a", "HZD500": 90.0, "PK": 23}, "geometry": {"type": "Point", "coordinates": [3951547.5906188833, 3891476.8619306963, 1000.0]}}, {"type": "Feature", "properties": {"id": "route_a", "HZD500": 90.0, "PK": 24}, "geometry": {"type": "Point", "coordinates": [3951565.0777257704, 3891494.7281304244, 1000.0]}}, {"type": "Feature", "properties": {"id": "route_a", "HZD500": 90.0, "PK": 25}, "geometry": {"type": "Point", "coordinates": [3951582.564832657, 3891512.5943301525, 1000.0]}}, {"type": "Feature", "properties": {"id": "route_a", "HZD500": 90.0, "PK": 26}, "geometry": {"type": "Point", "coordinates": [3951600.0519395443, 3891530.4605298806, 1000.0]}}, {"type": "Feature", "properties": {"id": "route_a", "HZD500": 90.0, "PK": 27}, "geometry": {"type": "Point", "coordinates": [3951617.539046431, 3891548.3267296087, 1000.0]}}, {"type": "Feature", "properties": {"id": "route_a", "HZD500": 90.0, "PK": 28}, "geometry": {"type": "Point", "coordinates": [3951647.438800238, 3891568.4925654856, 1000.0]}}, {"type": "Feature", "properties": {"id": "route_a", "HZD500": 90.0, "PK": 29}, "geometry": {"type": "Point", "coordinates": [3951670.555626728, 3891578.0116165434, 1000.0]}}, {"type": "Feature", "properties": {"id": "route_a", "HZD500": 90.0, "PK": 30}, "geometry": {"type": "Point", "coordinates": [3951693.6724532177, 3891587.5306676007, 1000.0]}}, {"type": "Feature", "properties": {"id": "route_a", "HZD500": 90.0, "PK": 31}, "geometry": {"type": "Point", "coordinates": [3951716.7892797077, 3891597.0497186584, 1000.0]}}, {"type": "Feature", "properties": {"id": "route_a", "HZD500": 90.0, "PK": 32}, "geometry": {"type": "Point", "coordinates": [3951739.9061061977, 3891606.5687697157, 1000.0]}}, {"type": "Feature", "properties": {"id": "route_a", "HZD500": 90.0, "PK": 33}, "geometry": {"type": "Point", "coordinates": [3951763.022932688, 3891616.0878207735, 1000.0]}}, {"type": "Feature", "properties": {"id": "route_a", "HZD500": 90.0, "PK": 34}, "geometry": {"type": "Point", "coordinates": [3951786.1397591773, 3891625.6068718308, 1000.0]}}, {"type": "Feature", "properties": {"id": "route_a", "HZD500": 90.0, "PK": 35}, "geometry": {"type": "Point", "coordinates": [3951809.2565856674, 3891635.1259228885, 1000.0]}}, {"type": "Feature", "properties": {"id": "route_a", "HZD500": 90.0, "PK": 36}, "geometry": {"type": "Point", "coordinates": [3951832.3734121574, 3891644.644973946, 1000.0]}}, {"type": "Feature", "properties": {"id": "route_a", "HZD500": 90.0, "PK": 37}, "geometry": {"type": "Point", "coordinates": [3951855.490238647, 3891654.1640250036, 1000.0]}}, {"type": "Feature", "properties": {"id": "route_a", "HZD500": 90.0, "PK": 38}, "geometry": {"type": "Point", "coordinates": [3951878.607065137, 3891663.683076061, 1000.0]}}, {"type": "Feature", "properties": {"id": "route_a", "HZD500": 90.0, "PK": 39}, "geometry": {"type": "Point", "coordinates": [3951901.723891627, 3891673.2021271186, 1000.0]}}, {"type": "Feature", "properties": {"id": "route_a", "HZD500": 90.0, "PK": 40}, "geometry": {"type": "Point", "coordinates": [3951924.840718117, 3891682.721178176, 1000.0]}}, {"type": "Feature", "properties": {"id": "route_a", "HZD500": 90.0, "PK": 41}, "geometry": {"type": "Point", "coordinates": [3951947.9575446066, 3891692.2402292336, 1000.0]}}, {"type": "Feature", "properties": {"id": "route_a", "HZD500": 90.0, "PK": 42}, "geometry": {"type": "Point", "coordinates": [3951971.0743710967, 3891701.759280291, 1000.0]}}, {"type": "Feature", "properties": {"id": "route_a", "HZD500": 90.0, "PK": 43}, "geometry": {"type": "Point", "coordinates": [3951994.1911975867, 3891711.2783313487, 1000.0]}}, {"type": "Feature", "properties": {"id": "route_a", "HZD500": 90.0, "PK": 44}, "geometry": {"type": "Point", "coordinates": [3952017.3080240767, 3891720.797382406, 1000.0]}}, {"type": "Feature", "properties": {"id": "route_a", "HZD500": 90.0, "PK": 45}, "geometry": {"type": "Point", "coordinates": [3952040.4248505663, 3891730.3164334637, 1000.0]}}, {"type": "Feature", "properties": {"id": "route_a", "HZD500": 90.0, "PK": 46}, "geometry": {"type": "Point", "coordinates": [3952063.5416770563, 3891739.835484521, 1000.0]}}, {"type": "Feature", "properties": {"id": "route_a", "HZD500": 90.0, "PK": 47}, "geometry": {"type": "Point", "coordinates": [3952086.6585035464, 3891749.3545355788, 1000.0]}}, {"type": "Feature", "properties": {"id": "route_a", "HZD500": 90.0, "PK": 48}, "geometry": {"type": "Point", "coordinates": [3952109.7753300364, 3891758.873586636, 1000.0]}}, {"type": "Feature", "properties": {"id": "route_a", "HZD500": 90.0, "PK": 49}, "geometry": {"type": "Point", "coordinates": [3952132.892156526, 3891768.392637694, 1000.0]}}, {"type": "Feature", "properties": {"id": "route_a", "HZD500": 90.0, "PK": 50}, "geometry": {"type": "Point", "coordinates": [3952156.008983016, 3891777.911688751, 1000.0]}}, {"type": "Feature", "properties": {"id": "route_a", "HZD500": 90.0, "PK": 51}, "geometry": {"type": "Point", "coordinates": [3952179.125809506, 3891787.4307398084, 1000.0]}}, {"type": "Feature", "properties": {"id": "route_a", "HZD500": 90.0, "PK": 52}, "geometry": {"type": "Point", "coordinates": [3952202.2426359956, 3891796.949790866, 1000.0]}}, {"type": "Feature", "properties": {"id": "route_a", "HZD500": 90.0, "PK": 53}, "geometry": {"type": "Point", "coordinates": [3952225.3594624856, 3891806.4688419234, 1000.0]}}, {"type": "Feature", "properties": {"id": "route_a", "HZD500": 90.0, "PK": 54}, "geometry": {"type": "Point", "coordinates": [3952261.131925894, 3891810.4551060596, 1000.0]}}, {"type": "Feature", "properties": {"id": "route_a", "HZD500": 90.0, "PK": 55}, "geometry": {"type": "Point", "coordinates": [3952285.7771561113, 3891806.258365952, 1000.0]}}, {"type": "Feature", "properties": {"id": "route_a", "HZD500": 90.0, "PK": 56}, "geometry": {"type": "Point", "coordinates": [3952310.4223863287, 3891802.061625845, 1000.0]}}, {"type": "Feature", "properties": {"id": "route_a", "HZD500": 90.0, "PK": 57}, "geometry": {"type": "Point", "coordinates": [3952335.0676165465, 3891797.864885737, 1000.0]}}, {"type": "Feature", "properties": {"id": "route_a", "HZD500": 90.0, "PK": 58}, "geometry": {"type": "Point", "coordinates": [3952359.712846764, 3891793.66814563, 1000.0]}}, {"type": "Feature", "properties": {"id": "route_a", "HZD500": 90.0, "PK": 59}, "geometry": {"type": "Point", "coordinates": [3952384.3580769813, 3891789.4714055224, 1000.0]}}, {"type": "Feature", "properties": {"id": "route_a", "HZD500": 90.0, "PK": 60}, "geometry": {"type": "Point", "coordinates": [3952409.0033071986, 3891785.2746654153, 1000.0]}}, {"type": "Feature", "properties": {"id": "route_a", "HZD500": 90.0, "PK": 61}, "geometry": {"type": "Point", "coordinates": [3952433.648537416, 3891781.0779253077, 1000.0]}}, {"type": "Feature", "properties": {"id": "route_a", "HZD500": 90.0, "PK": 62}, "geometry": {"type": "Point", "coordinates": [3952458.2937676334, 3891776.8811852005, 1000.0]}}, {"type": "Feature", "properties": {"id": "route_a", "HZD500": 90.0, "PK": 63}, "geometry": {"type": "Point", "coordinates": [3952482.9389978508, 3891772.684445093, 1000.0]}}, {"type": "Feature", "properties": {"id": "route_a", "HZD500": 90.0, "PK": 64}, "geometry": {"type": "Point", "coordinates": [3952507.5842280686, 3891768.487704986, 1000.0]}}, {"type": "Feature", "properties": {"id": "route_a", "HZD500": 90.0, "PK": 65}, "geometry": {"type": "Point", "coordinates": [3952532.229458286, 3891764.290964878, 1000.0]}}, {"type": "Feature", "properties": {"id": "route_a", "HZD500": 90.0, "PK": 66}, "geometry": {"type": "Point", "coordinates": [3952556.8746885033, 3891760.094224771, 1000.0]}}, {"type": "Feature", "properties": {"id": "route_a", "HZD500": 90.0, "PK": 67}, "geometry": {"type": "Point", "coordinates": [3952581.5199187207, 3891755.8974846634, 1000.0]}}, {"type": "Feature", "properties": {"id": "route_a", "HZD500": 90.0, "PK": 68}, "geometry": {"type": "Point", "coordinates": [3952606.165148938, 3891751.7007445563, 1000.0]}}, {"type": "Feature", "properties": {"id": "route_a", "HZD500": 90.0, "PK": 69}, "geometry": {"type": "Point", "coordinates": [3952630.8103791554, 3891747.5040044487, 1000.0]}}, {"type": "Feature", "properties": {"id": "route_a", "HZD500": 90.0, "PK": 70}, "geometry": {"type": "Point", "coordinates": [3952655.4556093733, 3891743.307264341, 1000.0]}}, {"type": "Feature", "properties": {"id": "route_a", "HZD500": 90.0, "PK": 71}, "geometry": {"type": "Point", "coordinates": [3952680.1008395907, 3891739.110524234, 1000.0]}}, {"type": "Feature", "properties": {"id": "route_a", "HZD500": 90.0, "PK": 72}, "geometry": {"type": "Point", "coordinates": [3952704.746069808, 3891734.9137841263, 1000.0]}}, {"type": "Feature", "properties": {"id": "route_a", "HZD500": 90.0, "PK": 73}, "geometry": {"type": "Point", "coordinates": [3952729.3913000254, 3891730.717044019, 1000.0]}}, {"type": "Feature", "properties": {"id": "route_a", "HZD500": 90.0, "PK": 74}, "geometry": {"type": "Point", "coordinates": [3952754.036530243, 3891726.5203039115, 1000.0]}}, {"type": "Feature", "properties": {"id": "route_a", "HZD500": 90.0, "PK": 75}, "geometry": {"type": "Point", "coordinates": [3952778.68176046, 3891722.3235638044, 1000.0]}}, {"type": "Feature", "properties": {"id": "route_a", "HZD500": 90.0, "PK": 76}, "geometry": {"type": "Point", "coordinates": [3952803.326990678, 3891718.126823697, 1000.0]}}, {"type": "Feature", "properties": {"id": "route_a", "HZD500": 90.0, "PK": 77}, "geometry": {"type": "Point", "coordinates": [3952827.9722208953, 3891713.9300835896, 1000.0]}}, {"type": "Feature", "properties": {"id": "route_a", "HZD500": 90.0, "PK": 78}, "geometry": {"type": "Point", "coordinates": [3952852.6174511127, 3891709.733343482, 1000.0]}}, {"type": "Feature", "properties": {"id": "route_a", "HZD500": 90.0, "PK": 79}, "geometry": {"type": "Point", "coordinates": [3952873.1975910463, 3891695.820561483, 1000.0]}}, {"type": "Feature", "properties": {"id": "route_a", "HZD500": 90.0, "PK": 80}, "geometry": {"type": "Point", "coordinates": [3952886.2765206257, 3891674.5146561735, 1000.0]}}, {"type": "Feature", "properties": {"id": "route_a", "HZD500": 90.0, "PK": 81}, "geometry": {"type": "Point", "coordinates": [3952899.3554502055, 3891653.2087508645, 1000.0]}}, {"type": "Feature", "properties": {"id": "route_a", "HZD500": 90.0, "PK": 82}, "geometry": {"type": "Point", "coordinates": [3952912.434379785, 3891631.902845555, 1000.0]}}, {"type": "Feature", "properties": {"id": "route_a", "HZD500": 90.0, "PK": 83}, "geometry": {"type": "Point", "coordinates": [3952925.5133093647, 3891610.5969402455, 1000.0]}}, {"type": "Feature", "properties": {"id": "route_a", "HZD500": 90.0, "PK": 84}, "geometry": {"type": "Point", "coordinates": [3952938.592238944, 3891589.291034936, 1000.0]}}, {"type": "Feature", "properties": {"id": "route_a", "HZD500": 90.0, "PK": 85}, "geometry": {"type": "Point", "coordinates": [3952951.6711685234, 3891567.985129627, 1000.0]}}, {"type": "Feature", "properties": {"id": "route_a", "HZD500": 90.0, "PK": 86}, "geometry": {"type": "Point", "coordinates": [3952964.750098103, 3891546.6792243174, 1000.0]}}, {"type": "Feature", "properties": {"id": "route_a", "HZD500": 90.0, "PK": 87}, "geometry": {"type": "Point", "coordinates": [3952977.8290276825, 3891525.373319008, 1000.0]}}, {"type": "Feature", "properties": {"id": "route_a", "HZD500": 90.0, "PK": 88}, "geometry": {"type": "Point", "coordinates": [3952990.9079572624, 3891504.0674136984, 1000.0]}}, {"type": "Feature", "properties": {"id": "route_a", "HZD500": 90.0, "PK": 89}, "geometry": {"type": "Point", "coordinates": [3953003.9868868417, 3891482.761508389, 1000.0]}}, {"type": "Feature", "properties": {"id": "route_a", "HZD500": 90.0, "PK": 90}, "geometry": {"type": "Point", "coordinates": [3953017.0658164215, 3891461.45560308, 1000.0]}}, {"type": "Feature", "properties": {"id": "route_a", "HZD500": 90.0, "PK": 91}, "geometry": {"type": "Point", "coordinates": [3953030.144746001, 3891440.1496977704, 1000.0]}}, {"type": "Feature", "properties": {"id": "route_a", "HZD500": 90.0, "PK": 92}, "geometry": {"type": "Point", "coordinates": [3953043.2236755807, 3891418.843792461, 1000.0]}}, {"type": "Feature", "properties": {"id": "route_a", "HZD500": 90.0, "PK": 93}, "geometry": {"type": "Point", "coordinates": [3953056.30260516, 3891397.5378871514, 1000.0]}}, {"type": "Feature", "properties": {"id": "route_a", "HZD500": 90.0, "PK": 94}, "geometry": {"type": "Point", "coordinates": [3953069.3815347394, 3891376.2319818423, 1000.0]}}, {"type": "Feature", "properties": {"id": "route_a", "HZD500": 90.0, "PK": 95}, "geometry": {"type": "Point", "coordinates": [3953082.460464319, 3891354.926076533, 1000.0]}}, {"type": "Feature", "properties": {"id": "route_a", "HZD500": 90.0, "PK": 96}, "geometry": {"type": "Point", "coordinates": [3953095.5393938986, 3891333.6201712233, 1000.0]}}, {"type": "Feature", "properties": {"id": "route_a", "HZD500": 90.0, "PK": 97}, "geometry": {"type": "Point", "coordinates": [3953108.6183234784, 3891312.314265914, 1000.0]}}, {"type": "Feature", "properties": {"id": "route_a", "HZD500": 90.0, "PK": 98}, "geometry": {"type": "Point", "coordinates": [3953121.6972530577, 3891291.0083606048, 1000.0]}}, {"type": "Feature", "properties": {"id": "route_a", "HZD500": 90.0, "PK": 99}, "geometry": {"type": "Point", "coordinates": [3953134.7761826375, 3891269.7024552952, 1000.0]}}, {"type": "Feature", "properties": {"id": "route_a", "HZD500": 90.0, "PK": 100}, "geometry": {"type": "Point", "coordinates": [3953147.855112217, 3891248.3965499857, 1000.0]}}, {"type": "Feature", "properties": {"id": "route_a", "HZD500": 90.0, "PK": 101}, "geometry": {"type": "Point", "coordinates": [3953160.9340417967, 3891227.0906446762, 1000.0]}}, {"type": "Feature", "properties": {"id": "route_a", "HZD500": 90.0, "PK": 102}, "geometry": {"type": "Point", "coordinates": [3953174.012971376, 3891205.784739367, 1000.0]}}, {"type": "Feature", "properties": {"id": "route_a", "HZD500": 90.0, "PK": 103}, "geometry": {"type": "Point", "coordinates": [3953187.0919009554, 3891184.4788340577, 1000.0]}}, {"type": "Feature", "properties": {"id": "route_a", "HZD500": 90.0, "PK": 104}, "geometry": {"type": "Point", "coordinates": [3953193.114035771, 3891139.6883749156, 1000.0]}}, {"type": "Feature", "properties": {"id": "route_a", "HZD500": 90.0, "PK": 105}, "geometry": {"type": "Point", "coordinates": [3953186.1270533777, 3891115.6845819443, 1000.0]}}, {"type": "Feature", "properties": {"id": "route_a", "HZD500": 90.0, "PK": 106}, "geometry": {"type": "Point", "coordinates": [3953179.1400709837, 3891091.6807889724, 1000.0]}}, {"type": "Feature", "properties": {"id": "route_a", "HZD500": 90.0, "PK": 107}, "geometry": {"type": "Point", "coordinates": [3953172.1530885897, 3891067.6769960006, 1000.0]}}, {"type": "Feature", "properties": {"id": "route_a", "HZD500": 90.0, "PK": 108}, "geometry": {"type": "Point", "coordinates": [3953165.1661061957, 3891043.673203029, 1000.0]}}, {"type": "Feature", "properties": {"id": "route_a", "HZD500": 90.0, "PK": 109}, "geometry": {"type": "Point", "coordinates": [3953158.1791238016, 3891019.6694100574, 1000.0]}}, {"type": "Feature", "properties": {"id": "route_a", "HZD500": 90.0, "PK": 110}, "geometry": {"type": "Point", "coordinates": [3953151.1921414076, 3890995.665617086, 1000.0]}}, {"type": "Feature", "properties": {"id": "route_a", "HZD500": 90.0, "PK": 111}, "geometry": {"type": "Point", "coordinates": [3953144.2051590136, 3890971.661824114, 1000.0]}}, {"type": "Feature", "properties": {"id": "route_a", "HZD500": 90.0, "PK": 112}, "geometry": {"type": "Point", "coordinates": [3953137.21817662, 3890947.6580311423, 1000.0]}}, {"type": "Feature", "properties": {"id": "route_a", "HZD500": 90.0, "PK": 113}, "geometry": {"type": "Point", "coordinates": [3953130.231194226, 3890923.654238171, 1000.0]}}, {"type": "Feature", "properties": {"id": "route_a", "HZD500": 90.0, "PK": 114}, "geometry": {"type": "Point", "coordinates": [3953123.244211832, 3890899.650445199, 1000.0]}}, {"type": "Feature", "properties": {"id": "route_a", "HZD500": 90.0, "PK": 115}, "geometry": {"type": "Point", "coordinates": [3953116.257229438, 3890875.6466522273, 1000.0]}}, {"type": "Feature", "properties": {"id": "route_a", "HZD500": 90.0, "PK": 116}, "geometry": {"type": "Point", "coordinates": [3953109.270247044, 3890851.642859256, 1000.0]}}, {"type": "Feature", "properties": {"id": "route_a", "HZD500": 90.0, "PK": 117}, "geometry": {"type": "Point", "coordinates": [3953102.28326465, 3890827.639066284, 1000.0]}}, {"type": "Feature", "properties": {"id": "route_a", "HZD500": 90.0, "PK": 118}, "geometry": {"type": "Point", "coordinates": [3953095.296282256, 3890803.635273312, 1000.0]}}, {"type": "Feature", "properties": {"id": "route_a", "HZD500": 90.0, "PK": 119}, "geometry": {"type": "Point", "coordinates": [3953088.309299862, 3890779.631480341, 1000.0]}}, {"type": "Feature", "properties": {"id": "route_a", "HZD500": 90.0, "PK": 120}, "geometry": {"type": "Point", "coordinates": [3953081.3223174685, 3890755.627687369, 1000.0]}}, {"type": "Feature", "properties": {"id": "route_a", "HZD500": 90.0, "PK": 121}, "geometry": {"type": "Point", "coordinates": [3953074.3353350745, 3890731.6238943976, 1000.0]}}, {"type": "Feature", "properties": {"id": "route_a", "HZD500": 90.0, "PK": 122}, "geometry": {"type": "Point", "coordinates": [3953067.3483526804, 3890707.620101426, 1000.0]}}, {"type": "Feature", "properties": {"id": "route_a", "HZD500": 90.0, "PK": 123}, "geometry": {"type": "Point", "coordinates": [3953060.3613702864, 3890683.616308454, 1000.0]}}, {"type": "Feature", "properties": {"id": "route_a", "HZD500": 90.0, "PK": 124}, "geometry": {"type": "Point", "coordinates": [3953053.3743878924, 3890659.6125154826, 1000.0]}}, {"type": "Feature", "properties": {"id": "route_a", "HZD500": 90.0, "PK": 125}, "geometry": {"type": "Point", "coordinates": [3953046.3874054984, 3890635.6087225107, 1000.0]}}, {"type": "Feature", "properties": {"id": "route_a", "HZD500": 90.0, "PK": 126}, "geometry": {"type": "Point", "coordinates": [3953039.4004231044, 3890611.604929539, 1000.0]}}, {"type": "Feature", "properties": {"id": "route_a", "HZD500": 90.0, "PK": 127}, "geometry": {"type": "Point", "coordinates": [3953032.413440711, 3890587.6011365675, 1000.0]}}, {"type": "Feature", "properties": {"id": "route_a", "HZD500": 90.0, "PK": 128}, "geometry": {"type": "Point", "coordinates": [3953025.426458317, 3890563.5973435957, 1000.0]}}, {"type": "Feature", "properties": {"id": "route_a", "HZD500": 90.0, "PK": 129}, "geometry": {"type": "Point", "coordinates": [3953018.439475923, 3890539.5935506243, 1000.0]}}, {"type": "Feature", "properties": {"id": "route_a", "HZD500": 90.0, "PK": 130}, "geometry": {"type": "Point", "coordinates": [3953011.452493529, 3890515.5897576525, 1000.0]}}, {"type": "Feature", "properties": {"id": "route_a", "HZD500": 90.0, "PK": 131}, "geometry": {"type": "Point", "coordinates": [3953008.767014496, 3890511.936099027, 1000.0]}}, {"type": "Feature", "properties": {"id": "route_a", "HZD500": 90.0, "PK": 132}, "geometry": {"type": "Point", "coordinates": [3952987.943148953, 3890498.102566439, 1000.0]}}, {"type": "Feature", "properties": {"id": "route_a", "HZD500": 90.0, "PK": 133}, "geometry": {"type": "Point", "coordinates": [3952967.11928341, 3890484.2690338516, 1000.0]}}, {"type": "Feature", "properties": {"id": "route_a", "HZD500": 90.0, "PK": 134}, "geometry": {"type": "Point", "coordinates": [3952946.295417867, 3890470.4355012644, 1000.0]}}, {"type": "Feature", "properties": {"id": "route_a", "HZD500": 90.0, "PK": 135}, "geometry": {"type": "Point", "coordinates": [3952925.471552324, 3890456.601968677, 1000.0]}}, {"type": "Feature", "properties": {"id": "route_a", "HZD500": 90.0, "PK": 136}, "geometry": {"type": "Point", "coordinates": [3952904.647686781, 3890442.768436089, 1000.0]}}, {"type": "Feature", "properties": {"id": "route_a", "HZD500": 90.0, "PK": 137}, "geometry": {"type": "Point", "coordinates": [3952883.8238212382, 3890428.934903502, 1000.0]}}, {"type": "Feature", "properties": {"id": "route_a", "HZD500": 90.0, "PK": 138}, "geometry": {"type": "Point", "coordinates": [3952862.999955695, 3890415.1013709144, 1000.0]}}, {"type": "Feature", "properties": {"id": "route_a", "HZD500": 90.0, "PK": 139}, "geometry": {"type": "Point", "coordinates": [3952842.176090152, 3890401.2678383267, 1000.0]}}, {"type": "Feature", "properties": {"id": "route_a", "HZD500": 90.0, "PK": 140}, "geometry": {"type": "Point", "coordinates": [3952821.3522246093, 3890387.434305739, 1000.0]}}, {"type": "Feature", "properties": {"id": "route_a", "HZD500": 90.0, "PK": 141}, "geometry": {"type": "Point", "coordinates": [3952800.528359066, 3890373.600773152, 1000.0]}}, {"type": "Feature", "properties": {"id": "route_a", "HZD500": 90.0, "PK": 142}, "geometry": {"type": "Point", "coordinates": [3952779.7044935236, 3890359.7672405643, 1000.0]}}, {"type": "Feature", "properties": {"id": "route_a", "HZD500": 90.0, "PK": 143}, "geometry": {"type": "Point", "coordinates": [3952758.8806279805, 3890345.9337079767, 1000.0]}}, {"type": "Feature", "properties": {"id": "route_a", "HZD500": 90.0, "PK": 144}, "geometry": {"type": "Point", "coordinates": [3952738.0567624373, 3890332.1001753896, 1000.0]}}, {"type": "Feature", "properties": {"id": "route_a", "HZD500": 90.0, "PK": 145}, "geometry": {"type": "Point", "coordinates": [3952717.2328968947, 3890318.266642802, 1000.0]}}, {"type": "Feature", "properties": {"id": "route_a", "HZD500": 90.0, "PK": 146}, "geometry": {"type": "Point", "coordinates": [3952696.4090313516, 3890304.4331102143, 1000.0]}}, {"type": "Feature", "properties": {"id": "route_a", "HZD500": 90.0, "PK": 147}, "geometry": {"type": "Point", "coordinates": [3952675.5851658084, 3890290.599577627, 1000.0]}}, {"type": "Feature", "properties": {"id": "route_a", "HZD500": 90.0, "PK": 148}, "geometry": {"type": "Point", "coordinates": [3952654.761300266, 3890276.7660450395, 1000.0]}}, {"type": "Feature", "properties": {"id": "route_a", "HZD500": 90.0, "PK": 149}, "geometry": {"type": "Point", "coordinates": [3952633.9374347227, 3890262.932512452, 1000.0]}}, {"type": "Feature", "properties": {"id": "route_a", "HZD500": 90.0, "PK": 150}, "geometry": {"type": "Point", "coordinates": [3952613.1135691795, 3890249.0989798643, 1000.0]}}, {"type": "Feature", "properties": {"id": "route_a", "HZD500": 90.0, "PK": 151}, "geometry": {"type": "Point", "coordinates": [3952592.289703637, 3890235.265447277, 1000.0]}}, {"type": "Feature", "properties": {"id": "route_a", "HZD500": 90.0, "PK": 152}, "geometry": {"type": "Point", "coordinates": [3952571.465838094, 3890221.4319146895, 1000.0]}}, {"type": "Feature", "properties": {"id": "route_a", "HZD500": 90.0, "PK": 153}, "geometry": {"type": "Point", "coordinates": [3952550.6419725507, 3890207.598382102, 1000.0]}}, {"type": "Feature", "properties": {"id": "route_a", "HZD500": 90.0, "PK": 154}, "geometry": {"type": "Point", "coordinates": [3952529.818107008, 3890193.7648495147, 1000.0]}}, {"type": "Feature", "properties": {"id": "route_a", "HZD500": 90.0, "PK": 155}, "geometry": {"type": "Point", "coordinates": [3952508.994241465, 3890179.931316927, 1000.0]}}, {"type": "Feature", "properties": {"id": "route_a", "HZD500": 90.0, "PK": 156}, "geometry": {"type": "Point", "coordinates": [3952488.170375922, 3890166.0977843395, 1000.0]}}, {"type": "Feature", "properties": {"id": "route_a", "HZD500": 90.0, "PK": 157}, "geometry": {"type": "Point", "coordinates": [3952467.346510379, 3890152.2642517523, 1000.0]}}, {"type": "Feature", "properties": {"id": "route_a", "HZD500": 90.0, "PK": 158}, "geometry": {"type": "Point", "coordinates": [3952446.522644836, 3890138.4307191647, 1000.0]}}, {"type": "Feature", "properties": {"id": "route_a", "HZD500": 90.0, "PK": 159}, "geometry": {"type": "Point", "coordinates": [3952425.6987792933, 3890124.597186577, 1000.0]}}, {"type": "Feature", "properties": {"id": "route_a", "HZD500": 90.0, "PK": 160}, "geometry": {"type": "Point", "coordinates": [3952404.87491375, 3890110.7636539894, 1000.0]}}, {"type": "Feature", "properties": {"id": "route_a", "HZD500": 90.0, "PK": 161}, "geometry": {"type": "Point", "coordinates": [3952384.051048207, 3890096.9301214023, 1000.0]}}, {"type": "Feature", "properties": {"id": "route_a", "HZD500": 90.0, "PK": 162}, "geometry": {"type": "Point", "coordinates": [3952363.2271826644, 3890083.0965888146, 1000.0]}}, {"type": "Feature", "properties": {"id": "route_a", "HZD500": 90.0, "PK": 163}, "geometry": {"type": "Point", "coordinates": [3952342.4033171213, 3890069.263056227, 1000.0]}}, {"type": "Feature", "properties": {"id": "route_a", "HZD500": 90.0, "PK": 164}, "geometry": {"type": "Point", "coordinates": [3952319.070344195, 3890064.1687342543, 1000.0]}}, {"type": "Feature", "properties": {"id": "route_a", "HZD500": 90.0, "PK": 165}, "geometry": {"type": "Point", "coordinates": [3952294.375693107, 3890068.0641427897, 1000.0]}}, {"type": "Feature", "properties": {"id": "route_a", "HZD500": 90.0, "PK": 166}, "geometry": {"type": "Point", "coordinates": [3952269.6810420193, 3890071.9595513246, 1000.0]}}, {"type": "Feature", "properties": {"id": "route_a", "HZD500": 90.0, "PK": 167}, "geometry": {"type": "Point", "coordinates": [3952244.9863909315, 3890075.85495986, 1000.0]}}, {"type": "Feature", "properties": {"id": "route_a", "HZD500": 90.0, "PK": 168}, "geometry": {"type": "Point", "coordinates": [3952220.291739844, 3890079.7503683954, 1000.0]}}, {"type": "Feature", "properties": {"id": "route_a", "HZD500": 90.0, "PK": 169}, "geometry": {"type": "Point", "coordinates": [3952195.597088756, 3890083.6457769307, 1000.0]}}, {"type": "Feature", "properties": {"id": "route_a", "HZD500": 90.0, "PK": 170}, "geometry": {"type": "Point", "coordinates": [3952170.9024376688, 3890087.541185466, 1000.0]}}, {"type": "Feature", "properties": {"id": "route_a", "HZD500": 90.0, "PK": 171}, "geometry": {"type": "Point", "coordinates": [3952146.207786581, 3890091.4365940015, 1000.0]}}, {"type": "Feature", "properties": {"id": "route_a", "HZD500": 90.0, "PK": 172}, "geometry": {"type": "Point", "coordinates": [3952121.5131354933, 3890095.332002537, 1000.0]}}, {"type": "Feature", "properties": {"id": "route_a", "HZD500": 90.0, "PK": 173}, "geometry": {"type": "Point", "coordinates": [3952096.8184844055, 3890099.2274110722, 1000.0]}}, {"type": "Feature", "properties": {"id": "route_a", "HZD500": 90.0, "PK": 174}, "geometry": {"type": "Point", "coordinates": [3952072.123833318, 3890103.1228196076, 1000.0]}}, {"type": "Feature", "properties": {"id": "route_a", "HZD500": 90.0, "PK": 175}, "geometry": {"type": "Point", "coordinates": [3952047.42918223, 3890107.018228143, 1000.0]}}, {"type": "Feature", "properties": {"id": "route_a", "HZD500": 90.0, "PK": 176}, "geometry": {"type": "Point", "coordinates": [3952022.7345311423, 3890110.9136366784, 1000.0]}}, {"type": "Feature", "properties": {"id": "route_a", "HZD500": 90.0, "PK": 177}, "geometry": {"type": "Point", "coordinates": [3951998.0398800545, 3890114.8090452137, 1000.0]}}, {"type": "Feature", "properties": {"id": "route_a", "HZD500": 90.0, "PK": 178}, "geometry": {"type": "Point", "coordinates": [3951973.3452289673, 3890118.704453749, 1000.0]}}, {"type": "Feature", "properties": {"id": "route_a", "HZD500": 90.0, "PK": 179}, "geometry": {"type": "Point", "coordinates": [3951948.6505778795, 3890122.5998622845, 1000.0]}}, {"type": "Feature", "properties": {"id": "route_a", "HZD500": 90.0, "PK": 180}, "geometry": {"type": "Point", "coordinates": [3951923.9559267918, 3890126.4952708194, 1000.0]}}, {"type": "Feature", "properties": {"id": "route_a", "HZD500": 90.0, "PK": 181}, "geometry": {"type": "Point", "coordinates": [3951899.261275704, 3890130.390679355, 1000.0]}}, {"type": "Feature", "properties": {"id": "route_a", "HZD500": 90.0, "PK": 182}, "geometry": {"type": "Point", "coordinates": [3951874.5666246163, 3890134.28608789, 1000.0]}}, {"type": "Feature", "properties": {"id": "route_a", "HZD500": 90.0, "PK": 183}, "geometry": {"type": "Point", "coordinates": [3951849.8719735285, 3890138.1814964255, 1000.0]}}, {"type": "Feature", "properties": {"id": "route_a", "HZD500": 90.0, "PK": 184}, "geometry": {"type": "Point", "coordinates": [3951825.177322441, 3890142.076904961, 1000.0]}}, {"type": "Feature", "properties": {"id": "route_a", "HZD500": 90.0, "PK": 185}, "geometry": {"type": "Point", "coordinates": [3951800.482671353, 3890145.9723134963, 1000.0]}}, {"type": "Feature", "properties": {"id": "route_a", "HZD500": 90.0, "PK": 186}, "geometry": {"type": "Point", "coordinates": [3951775.7880202658, 3890149.8677220317, 1000.0]}}, {"type": "Feature", "properties": {"id": "route_a", "HZD500": 90.0, "PK": 187}, "geometry": {"type": "Point", "coordinates": [3951751.093369178, 3890153.763130567, 1000.0]}}, {"type": "Feature", "properties": {"id": "route_a", "HZD500": 90.0, "PK": 188}, "geometry": {"type": "Point", "coordinates": [3951726.3987180903, 3890157.6585391024, 1000.0]}}, {"type": "Feature", "properties": {"id": "route_a", "HZD500": 90.0, "PK": 189}, "geometry": {"type": "Point", "coordinates": [3951701.7040670025, 3890161.553947638, 1000.0]}}, {"type": "Feature", "properties": {"id": "route_a", "HZD500": 90.0, "PK": 190}, "geometry": {"type": "Point", "coordinates": [3951677.009415915, 3890165.449356173, 1000.0]}}, {"type": "Feature", "properties": {"id": "route_a", "HZD500": 90.0, "PK": 191}, "geometry": {"type": "Point", "coordinates": [3951652.314764827, 3890169.3447647085, 1000.0]}}, {"type": "Feature", "properties": {"id": "route_a", "HZD500": 90.0, "PK": 192}, "geometry": {"type": "Point", "coordinates": [3951627.6201137393, 3890173.240173244, 1000.0]}}, {"type": "Feature", "properties": {"id": "route_a", "HZD500": 90.0, "PK": 193}, "geometry": {"type": "Point", "coordinates": [3951602.9254626515, 3890177.1355817793, 1000.0]}}, {"type": "Feature", "properties": {"id": "route_a", "HZD500": 90.0, "PK": 194}, "geometry": {"type": "Point", "coordinates": [3951578.230811564, 3890181.030990314, 1000.0]}}, {"type": "Feature", "properties": {"id": "route_a", "HZD500": 90.0, "PK": 195}, "geometry": {"type": "Point", "coordinates": [3951572.7801029678, 3890184.4887554985, 1000.0]}}, {"type": "Feature", "properties": {"id": "route_a", "HZD500": 90.0, "PK": 196}, "geometry": {"type": "Point", "coordinates": [3951558.733603845, 3890205.169564535, 1000.0]}}, {"type": "Feature", "properties": {"id": "route_a", "HZD500": 90.0, "PK": 197}, "geometry": {"type": "Point", "coordinates": [3951544.6871047225, 3890225.8503735713, 1000.0]}}, {"type": "Feature", "properties": {"id": "route_a", "HZD500": 90.0, "PK": 198}, "geometry": {"type": "Point", "coordinates": [3951530.6406055996, 3890246.5311826076, 1000.0]}}, {"type": "Feature", "properties": {"id": "route_a", "HZD500": 90.0, "PK": 199}, "geometry": {"type": "Point", "coordinates": [3951516.594106477, 3890267.211991644, 1000.0]}}, {"type": "Feature", "properties": {"id": "route_a", "HZD500": 90.0, "PK": 200}, "geometry": {"type": "Point", "coordinates": [3951502.5476073544, 3890287.8928006804, 1000.0]}}, {"type": "Feature", "properties": {"id": "route_a", "HZD500": 90.0, "PK": 201}, "geometry": {"type": "Point", "coordinates": [3951488.501108232, 3890308.5736097167, 1000.0]}}, {"type": "Feature", "properties": {"id": "route_a", "HZD500": 90.0, "PK": 202}, "geometry": {"type": "Point", "coordinates": [3951474.454609109, 3890329.254418753, 1000.0]}}, {"type": "Feature", "properties": {"id": "route_a", "HZD500": 90.0, "PK": 203}, "geometry": {"type": "Point", "coordinates": [3951460.4081099867, 3890349.9352277895, 1000.0]}}, {"type": "Feature", "properties": {"id": "route_a", "HZD500": 90.0, "PK": 204}, "geometry": {"type": "Point", "coordinates": [3951446.361610864, 3890370.616036826, 1000.0]}}, {"type": "Feature", "properties": {"id": "route_a", "HZD500": 90.0, "PK": 205}, "geometry": {"type": "Point", "coordinates": [3951432.3151117414, 3890391.296845862, 1000.0]}}, {"type": "Feature", "properties": {"id": "route_a", "HZD500": 90.0, "PK": 206}, "geometry": {"type": "Point", "coordinates": [3951418.2686126186, 3890411.9776548985, 1000.0]}}, {"type": "Feature", "properties": {"id": "route_a", "HZD500": 90.0, "PK": 207}, "geometry": {"type": "Point", "coordinates": [3951404.222113496, 3890432.6584639344, 1000.0]}}, {"type": "Feature", "properties": {"id": "route_a", "HZD500": 90.0, "PK": 208}, "geometry": {"type": "Point", "coordinates": [3951390.1756143733, 3890453.339272971, 1000.0]}}, {"type": "Feature", "properties": {"id": "route_a", "HZD500": 90.0, "PK": 209}, "geometry": {"type": "Point", "coordinates": [3951376.129115251, 3890474.020082007, 1000.0]}}, {"type": "Feature", "properties": {"id": "route_a", "HZD500": 90.0, "PK": 210}, "geometry": {"type": "Point", "coordinates": [3951362.082616128, 3890494.7008910435, 1000.0]}}, {"type": "Feature", "properties": {"id": "route_a", "HZD500": 90.0, "PK": 211}, "geometry": {"type": "Point", "coordinates": [3951348.0361170056, 3890515.38170008, 1000.0]}}, {"type": "Feature", "properties": {"id": "route_a", "HZD500": 90.0, "PK": 212}, "geometry": {"type": "Point", "coordinates": [3951333.9896178828, 3890536.0625091163, 1000.0]}}, {"type": "Feature", "properties": {"id": "route_a", "HZD500": 90.0, "PK": 213}, "geometry": {"type": "Point", "coordinates": [3951319.9431187604, 3890556.7433181526, 1000.0]}}, {"type": "Feature", "properties": {"id": "route_a", "HZD500": 90.0, "PK": 214}, "geometry": {"type": "Point", "coordinates": [3951305.8966196375, 3890577.424127189, 1000.0]}}, {"type": "Feature", "properties": {"id": "route_a", "HZD500": 90.0, "PK": 215}, "geometry": {"type": "Point", "coordinates": [3951291.850120515, 3890598.1049362253, 1000.0]}}, {"type": "Feature", "properties": {"id": "route_a", "HZD500": 90.0, "PK": 216}, "geometry": {"type": "Point", "coordinates": [3951277.803621392, 3890618.7857452617, 1000.0]}}, {"type": "Feature", "properties": {"id": "route_a", "HZD500": 90.0, "PK": 217}, "geometry": {"type": "Point", "coordinates": [3951263.75712227, 3890639.466554298, 1000.0]}}, {"type": "Feature", "properties": {"id": "route_a", "HZD500": 90.0, "PK": 218}, "geometry": {"type": "Point", "coordinates": [3951249.710623147, 3890660.1473633344, 1000.0]}}, {"type": "Feature", "properties": {"id": "route_a", "HZD500": 90.0, "PK": 219}, "geometry": {"type": "Point", "coordinates": [3951235.6641240246, 3890680.828172371, 1000.0]}}, {"type": "Feature", "properties": {"id": "route_a", "HZD500": 90.0, "PK": 220}, "geometry": {"type": "Point", "coordinates": [3951221.6176249017, 3890701.508981407, 1000.0]}}, {"type": "Feature", "properties": {"id": "route_a", "HZD500": 90.0, "PK": 221}, "geometry": {"type": "Point", "coordinates": [3951207.5711257793, 3890722.1897904435, 1000.0]}}, {"type": "Feature", "properties": {"id": "route_a", "HZD500": 90.0, "PK": 222}, "geometry": {"type": "Point", "coordinates": [3951196.2701146104, 3890738.828388564, 1000.0]}}]}