{
"type": "FeatureCollection",
"name": "source",
"crs": { "type": "name", "properties": { "name": "urn:ogc:def:crs:OGC:1.3:CRS84" } },
"features": [
{ "type": "Feature", "properties": { "id": 12 }, "geometry": { "type": "MultiLineString", "coordinates": [ [ [ 35.509874223573917, 32.973180519678557 ], [ 35.511818707316621, 32.96461590109886 ], [ 35.50215030204042, 32.959540179734141 ], [ 35.495020528317191, 32.96683643750476 ], [ 35.498747455490701, 32.973316459309864 ], [ 35.506525390461498, 32.973950841489369 ], [ 35.506525390461498, 32.973950841489369 ], [ 35.506471377024198, 32.973860215742718 ], [ 35.506471377024198, 32.973860215742718 ] ] ] } }
]
}
