{"type": "FeatureCollection", "name": "route_source", "crs": {"type": "name", "properties": {"name": "urn:ogc:def:crs:EPSG::3857"}}, "features": [{"type": "Feature", "properties": {"PK": 1, "HZD500": 90.0}, "geometry": {"type": "Point", "coordinates": [3953568.328560566, 3892702.77405697, 700.0]}}, {"type": "Feature", "properties": {"PK": 12, "HZD500": 12.0}, "geometry": {"type": "Point", "coordinates": [3953396.178790463, 3893164.382553207, 700.0]}}, {"type": "Feature", "properties": {"PK": 123, "HZD500": 123.0}, "geometry": {"type": "Point", "coordinates": [3953437.2460915786, 3893753.013869197, 700.0]}}, {"type": "Feature", "properties": {"PK": 3123, "HZD500": 12314.0}, "geometry": {"type": "Point", "coordinates": [3953930.0537049654, 3894225.287832026, 700.0]}}]}